NORAD_CAT_ID,OBJECT_NAME,OBJECT_TYPE,EPOCH,MEAN_MOTION,ECCENTRICITY,INCLINATION,RA_OF_ASC_NODE,ARG_OF_PERICENTER,MEAN_ANOMALY,BSTAR,MEAN_MOTION_DOT,MEAN_MOTION_DDOT,TLE_LINE0,TLE_LINE1,TLE_LINE2,SEMIMAJOR_AXIS,PERIOD,APOGEE,PERIGEE,DECAYED
52117.0,STARLINK-3738,PAYLOAD,2023-12-07 13:26:56,15.08835368,0.0001251,53.2155,174.2919,88.5677,271.5459,2.1463e-05,5.4e-07,0.0,0 STARLINK-3738,1 52117U 22029AF  23341.56037502  .00000054  00000-0  21463-4 0  9991,2 52117  53.2155 174.2919 0001251  88.5677 271.5459 15.08835368 96535,6917.895,95.438,540.625,538.894,0.0
52117.0,STARLINK-3738,PAYLOAD,2023-12-08 13:17:43,15.0884069,0.000128,53.216,169.8325,89.9642,270.1497,8.2298e-05,1.022e-05,0.0,0 STARLINK-3738,1 52117U 22029AF  23342.55397242  .00001022  00000-0  82298-4 0  9990,2 52117  53.2160 169.8325 0001280  89.9642 270.1497 15.08840690 96688,6917.878,95.438,540.629,538.858,0.0
52117.0,STARLINK-3738,PAYLOAD,2023-12-09 21:05:25,15.08848125,0.0001303,53.217,163.8857,85.4593,274.6548,0.00011401,1.527e-05,0.0,0 STARLINK-3738,1 52117U 22029AF  23343.87876382  .00001527  00000-0  11401-3 0  9990,2 52117  53.2170 163.8857 0001303  85.4593 274.6548 15.08848125 96884,6917.856,95.437,540.622,538.819,0.0
52117.0,STARLINK-3738,PAYLOAD,2023-12-10 11:23:53,15.08846524,0.0001822,53.2155,161.2105,79.7759,280.3438,0.00014619,2.04e-05,0.0,0 STARLINK-3738,1 52117U 22029AF  23344.47492731  .00002040  00000-0  14619-3 0  9994,2 52117  53.2155 161.2105 0001822  79.7759 280.3438 15.08846524 96974,6917.86,95.437,540.986,538.465,0.0
52117.0,STARLINK-3738,PAYLOAD,2023-12-10 19:20:49,15.08847932,0.0001307,53.2163,159.7214,84.5312,275.5829,1.6277e-05,-2.9e-07,0.0,0 STARLINK-3738,1 52117U 22029AF  23344.80612458 -.00000029  00000-0  16277-4 0  9990,2 52117  53.2163 159.7214 0001307  84.5312 275.5829 15.08847932 97024,6917.856,95.437,540.625,538.817,0.0
52117.0,STARLINK-3738,PAYLOAD,2023-12-11 19:11:35,15.08844965,0.0001308,53.2164,155.2609,84.3527,275.7614,5.1655e-05,5.34e-06,0.0,0 STARLINK-3738,1 52117U 22029AF  23345.79972096  .00000534  00000-0  51655-4 0  9995,2 52117  53.2164 155.2609 0001308  84.3527 275.7614 15.08844965 97174,6917.865,95.437,540.635,538.825,0.0
52117.0,STARLINK-3738,PAYLOAD,2023-12-12 17:26:58,15.0884907,0.000133,53.2165,151.0982,74.3278,285.7861,6.1704e-05,6.94e-06,0.0,0 STARLINK-3738,1 52117U 22029AF  23346.72706301  .00000694  00000-0  61704-4 0  9996,2 52117  53.2165 151.0982 0001330  74.3278 285.7861 15.08849070 97313,6917.853,95.437,540.638,538.798,0.0
52117.0,STARLINK-3738,PAYLOAD,2023-12-13 14:06:59,15.08838933,0.0001292,53.2169,147.2342,99.7498,260.364,-6.1907e-05,-1.273e-05,0.0,0 STARLINK-3738,1 52117U 22029AF  23347.58819005 -.00001273  00000-0 -61907-4 0  9998,2 52117  53.2169 147.2342 0001292  99.7498 260.3640 15.08838933 97440,6917.884,95.438,540.642,538.855,0.0
52117.0,STARLINK-3738,PAYLOAD,2023-12-13 17:17:45,15.08838021,0.0001331,53.2164,146.642,83.3046,276.8097,-6.5609e-05,-1.332e-05,0.0,0 STARLINK-3738,1 52117U 22029AF  23347.72067039 -.00001332  00000-0 -65609-4 0  9995,2 52117  53.2164 146.6420 0001331  83.3046 276.8097 15.08838021 97465,6917.886,95.438,540.672,538.831,0.0
52117.0,STARLINK-3738,PAYLOAD,2023-12-14 13:57:46,15.08824038,0.0001508,53.2169,142.7734,98.3212,261.7951,1.9196e-05,1.7e-07,0.0,0 STARLINK-3738,1 52117U 22029AF  23348.58179383  .00000017  00000-0  19196-4 0  9993,2 52117  53.2169 142.7734 0001508  98.3212 261.7951 15.08824038 97591,6917.929,95.439,540.837,538.751,0.0
52117.0,STARLINK-3738,PAYLOAD,2023-12-14 15:33:10,15.08824806,0.0001516,53.217,142.4756,96.7732,263.3433,2.3633e-05,8.8e-07,0.0,0 STARLINK-3738,1 52117U 22029AF  23348.64803392  .00000088  00000-0  23633-4 0  9993,2 52117  53.2170 142.4756 0001516  96.7732 263.3433 15.08824806 97600,6917.927,95.439,540.841,538.743,0.0
52117.0,STARLINK-3738,PAYLOAD,2023-12-15 13:48:34,15.08824226,0.000158,53.2172,138.3113,105.8769,254.2398,3.9963e-05,3.48e-06,0.0,0 STARLINK-3738,1 52117U 22029AF  23349.57540237  .00000348  00000-0  39963-4 0  9994,2 52117  53.2172 138.3113 0001580 105.8769 254.2398 15.08824226 97746,6917.929,95.439,540.887,538.701,0.0
52117.0,STARLINK-3738,PAYLOAD,2023-12-15 16:59:21,15.08825058,0.0001512,53.2171,137.7151,101.6515,258.4647,4.3748e-05,4.08e-06,0.0,0 STARLINK-3738,1 52117U 22029AF  23349.70788310  .00000408  00000-0  43748-4 0  9998,2 52117  53.2171 137.7151 0001512 101.6515 258.4647 15.08825058 97767,6917.926,95.438,540.837,538.745,0.0
52117.0,STARLINK-3738,PAYLOAD,2023-12-16 13:39:21,15.08834931,0.0001289,53.2163,133.8498,90.4717,269.6422,0.00012426,1.69e-05,0.0,0 STARLINK-3738,1 52117U 22029AF  23350.56900129  .00001690  00000-0  12426-3 0  9990,2 52117  53.2163 133.8498 0001289  90.4717 269.6422 15.08834931 97898,6917.896,95.438,540.653,538.869,0.0
52117.0,STARLINK-3738,PAYLOAD,2023-12-16 16:50:07,15.08838542,0.0001314,53.2164,133.2544,91.2505,268.8638,0.00015334,2.153e-05,0.0,0 STARLINK-3738,1 52117U 22029AF  23350.70147900  .00002153  00000-0  15334-3 0  9992,2 52117  53.2164 133.2544 0001314  91.2505 268.8638 15.08838542 97913,6917.885,95.438,540.659,538.841,0.0
52117.0,STARLINK-3738,PAYLOAD,2023-12-17 15:05:32,15.08834054,0.0001232,53.2163,129.0947,74.0699,286.0429,3.972e-05,3.44e-06,0.0,0 STARLINK-3738,1 52117U 22029AF  23351.62885122  .00000344  00000-0  39720-4 0  9995,2 52117  53.2163 129.0947 0001232  74.0699 286.0429 15.08834054 98054,6917.899,95.438,540.616,538.911,0.0
52117.0,STARLINK-3738,PAYLOAD,2023-12-17 16:40:55,15.08835462,0.000124,53.2162,128.7979,73.332,286.7808,5.4525e-05,5.8e-06,0.0,0 STARLINK-3738,1 52117U 22029AF  23351.69509026  .00000580  00000-0  54525-4 0  9990,2 52117  53.2162 128.7979 0001240  73.3320 286.7808 15.08835462 98069,6917.894,95.438,540.617,538.901,0.0
52117.0,STARLINK-3738,PAYLOAD,2023-12-18 13:20:55,15.08846112,0.0001236,53.216,124.9327,76.1843,283.9286,0.00010383,1.365e-05,0.0,0 STARLINK-3738,1 52117U 22029AF  23352.55620200  .00001365  00000-0  10383-3 0  9999,2 52117  53.2160 124.9327 0001236  76.1843 283.9286 15.08846112 98195,6917.862,95.437,540.582,538.872,0.0
52117.0,STARLINK-3738,PAYLOAD,2023-12-18 14:56:18,15.08847183,0.0001261,53.216,124.6354,74.9766,285.1365,0.00011277,1.508e-05,0.0,0 STARLINK-3738,1 52117U 22029AF  23352.62244113  .00001508  00000-0  11277-3 0  9994,2 52117  53.2160 124.6354 0001261  74.9766 285.1365 15.08847183 98203,6917.858,95.437,540.596,538.851,0.0
52117.0,STARLINK-3738,PAYLOAD,2023-12-19 14:47:06,15.08841807,0.0001282,53.2162,120.1757,99.6421,260.4716,5.5921e-05,6.02e-06,0.0,0 STARLINK-3738,1 52117U 22029AF  23353.61604523  .00000602  00000-0  55921-4 0  9998,2 52117  53.2162 120.1757 0001282  99.6421 260.4716 15.08841807 98357,6917.875,95.437,540.627,538.853,0.0
52117.0,STARLINK-3738,PAYLOAD,2023-12-19 16:22:29,15.08831214,0.0001576,53.2172,119.8783,61.7806,298.3345,0.00024502,3.613e-05,0.0,0 STARLINK-3738,1 52117U 22029AF  23353.68228813  .00003613  00000-0  24502-3 0  9994,2 52117  53.2172 119.8783 0001576  61.7806 298.3345 15.08831214 98365,6917.907,95.438,540.863,538.682,0.0
52117.0,STARLINK-3738,PAYLOAD,2023-12-20 13:02:30,15.08838698,0.0001531,53.2179,116.0112,74.98,285.1361,-5.1505e-05,-1.108e-05,0.0,0 STARLINK-3738,1 52117U 22029AF  23354.54341227 -.00001108  00000-0 -51505-4 0  9998,2 52117  53.2179 116.0112 0001531  74.9800 285.1361 15.08838698 98497,6917.884,95.438,540.808,538.69,0.0
52117.0,STARLINK-3738,PAYLOAD,2023-12-20 14:37:54,15.08836072,0.0001914,53.2174,115.718,54.6531,305.4639,2.3287e-05,8.2e-07,0.0,0 STARLINK-3738,1 52117U 22029AF  23354.60965447  .00000082  00000-0  23287-4 0  9995,2 52117  53.2174 115.7180 0001914  54.6531 305.4639 15.08836072 98504,6917.892,95.438,541.081,538.433,0.0
52117.0,STARLINK-3738,PAYLOAD,2023-12-21 11:17:54,15.08841977,0.0001524,53.2182,111.8513,109.6801,250.4355,4.8738e-05,4.88e-06,0.0,0 STARLINK-3738,1 52117U 22029AF  23355.47076812  .00000488  00000-0  48738-4 0  9998,2 52117  53.2182 111.8513 0001524 109.6801 250.4355 15.08841977 98636,6917.874,95.437,540.794,538.685,0.0
52117.0,STARLINK-3738,PAYLOAD,2023-12-21 14:28:40,15.08846232,0.0001514,53.2169,111.2553,67.4861,292.6292,7.4232e-05,8.94e-06,0.0,0 STARLINK-3738,1 52117U 22029AF  23355.60324695  .00000894  00000-0  74232-4 0  9997,2 52117  53.2169 111.2553 0001514  67.4861 292.6292 15.08846232 98654,6917.861,95.437,540.774,538.679,0.0
52117.0,STARLINK-3738,PAYLOAD,2023-12-22 11:08:42,15.08831776,0.0001414,53.2185,107.3847,94.3976,265.7178,2.8293e-05,1.62e-06,0.0,0 STARLINK-3738,1 52117U 22029AF  23356.46438071  .00000162  00000-0  28293-4 0  9990,2 52117  53.2185 107.3847 0001414  94.3976 265.7178 15.08831776 98784,6917.906,95.438,540.749,538.792,0.0
52117.0,STARLINK-3738,PAYLOAD,2023-12-22 14:19:29,15.08824948,0.0001361,53.2169,106.789,89.8692,270.2456,-8.5453e-05,-1.647e-05,0.0,0 STARLINK-3738,1 52117U 22029AF  23356.59686374 -.00001647  00000-0 -85453-4 0  9997,2 52117  53.2169 106.7890 0001361  89.8692 270.2456 15.08824948 98808,6917.926,95.439,540.733,538.85,0.0
52117.0,STARLINK-3738,PAYLOAD,2023-12-23 10:59:28,15.08853424,0.0001444,53.2176,102.9241,101.8095,258.3059,0.00012687,1.732e-05,0.0,0 STARLINK-3738,1 52117U 22029AF  23357.45796849  .00001732  00000-0  12687-3 0  9993,2 52117  53.2176 102.9241 0001444 101.8095 258.3059 15.08853424 98939,6917.839,95.437,540.703,538.705,0.0
52117.0,STARLINK-3738,PAYLOAD,2023-12-23 14:10:14,15.08856535,0.0001456,53.2175,102.329,96.4116,263.7042,0.00014934,2.091e-05,0.0,0 STARLINK-3738,1 52117U 22029AF  23357.59044567  .00002091  00000-0  14934-3 0  9997,2 52117  53.2175 102.3290 0001456  96.4116 263.7042 15.08856535 98952,6917.83,95.437,540.702,538.688,0.0
52117.0,STARLINK-3738,PAYLOAD,2023-12-24 12:25:39,15.08837724,0.0001356,53.2172,98.1671,98.0836,262.031,0.00026425,3.92e-05,0.0,0 STARLINK-3738,1 52117U 22029AF  23358.51781613  .00003920  00000-0  26425-3 0  9990,2 52117  53.2172  98.1671 0001356  98.0836 262.0310 15.08837724 99095,6917.887,95.438,540.69,538.814,0.0
